{
  "type": "FeatureCollection",
  "note": "屋外ブースのテントの形。企画実施場所の屋外配置図から取り出し、経緯度に合わせたもの。properties.booth はブース番号。",
  "features": [
    {
      "type": "Feature",
      "properties": {
        "booth": "A1"
      },
      "geometry": {
        "type": "Polygon",
        "coordinates": [
          [
            [
              140.100971,
              36.1107187
            ],
            [
              140.1009602,
              36.1106897
            ],
            [
              140.1009331,
              36.1106964
            ],
            [
              140.1009439,
              36.1107253
            ],
            [
              140.100971,
              36.1107187
            ]
          ]
        ]
      }
    },
    {
      "type": "Feature",
      "properties": {
        "booth": "A2"
      },
      "geometry": {
        "type": "Polygon",
        "coordinates": [
          [
            [
              140.1009622,
              36.1106759
            ],
            [
              140.1009773,
              36.110653
            ],
            [
              140.1009491,
              36.1106408
            ],
            [
              140.100934,
              36.1106637
            ],
            [
              140.1009622,
              36.1106759
            ]
          ]
        ]
      }
    },
    {
      "type": "Feature",
      "properties": {
        "booth": "A3"
      },
      "geometry": {
        "type": "Polygon",
        "coordinates": [
          [
            [
              140.1009491,
              36.1106408
            ],
            [
              140.1009773,
              36.1106531
            ],
            [
              140.1009871,
              36.1106382
            ],
            [
              140.1009589,
              36.110626
            ],
            [
              140.1009491,
              36.1106408
            ]
          ]
        ]
      }
    },
    {
      "type": "Feature",
      "properties": {
        "booth": "A4"
      },
      "geometry": {
        "type": "Polygon",
        "coordinates": [
          [
            [
              140.100972,
              36.1106106
            ],
            [
              140.1010002,
              36.1106228
            ],
            [
              140.1010142,
              36.1106016
            ],
            [
              140.100986,
              36.1105894
            ],
            [
              140.100972,
              36.1106106
            ]
          ]
        ]
      }
    },
    {
      "type": "Feature",
      "properties": {
        "booth": "A5"
      },
      "geometry": {
        "type": "Polygon",
        "coordinates": [
          [
            [
              140.100986,
              36.1105894
            ],
            [
              140.1010142,
              36.1106017
            ],
            [
              140.1010251,
              36.1105851
            ],
            [
              140.100997,
              36.1105729
            ],
            [
              140.100986,
              36.1105894
            ]
          ]
        ]
      }
    },
    {
      "type": "Feature",
      "properties": {
        "booth": "A6"
      },
      "geometry": {
        "type": "Polygon",
        "coordinates": [
          [
            [
              140.1010092,
              36.1105577
            ],
            [
              140.1010358,
              36.1105693
            ],
            [
              140.101047,
              36.1105523
            ],
            [
              140.1010203,
              36.1105408
            ],
            [
              140.1010092,
              36.1105577
            ]
          ]
        ]
      }
    },
    {
      "type": "Feature",
      "properties": {
        "booth": "A7"
      },
      "geometry": {
        "type": "Polygon",
        "coordinates": [
          [
            [
              140.1010211,
              36.1105396
            ],
            [
              140.1010478,
              36.1105511
            ],
            [
              140.1010598,
              36.1105328
            ],
            [
              140.1010332,
              36.1105213
            ],
            [
              140.1010211,
              36.1105396
            ]
          ]
        ]
      }
    },
    {
      "type": "Feature",
      "properties": {
        "booth": "A8"
      },
      "geometry": {
        "type": "Polygon",
        "coordinates": [
          [
            [
              140.1010414,
              36.1105055
            ],
            [
              140.101068,
              36.1105171
            ],
            [
              140.1010792,
              36.1105002
            ],
            [
              140.1010525,
              36.1104886
            ],
            [
              140.1010414,
              36.1105055
            ]
          ]
        ]
      }
    },
    {
      "type": "Feature",
      "properties": {
        "booth": "A9"
      },
      "geometry": {
        "type": "Polygon",
        "coordinates": [
          [
            [
              140.1010534,
              36.1104874
            ],
            [
              140.10108,
              36.110499
            ],
            [
              140.1010923,
              36.1104802
            ],
            [
              140.1010657,
              36.1104687
            ],
            [
              140.1010534,
              36.1104874
            ]
          ]
        ]
      }
    },
    {
      "type": "Feature",
      "properties": {
        "booth": "B1"
      },
      "geometry": {
        "type": "Polygon",
        "coordinates": [
          [
            [
              140.1014765,
              36.1102298
            ],
            [
              140.1015038,
              36.1102231
            ],
            [
              140.1014937,
              36.1101963
            ],
            [
              140.1014664,
              36.1102031
            ],
            [
              140.1014765,
              36.1102298
            ]
          ]
        ]
      }
    },
    {
      "type": "Feature",
      "properties": {
        "booth": "B2"
      },
      "geometry": {
        "type": "Polygon",
        "coordinates": [
          [
            [
              140.1015038,
              36.1102231
            ],
            [
              140.1015311,
              36.1102163
            ],
            [
              140.101521,
              36.1101896
            ],
            [
              140.1014937,
              36.1101963
            ],
            [
              140.1015038,
              36.1102231
            ]
          ]
        ]
      }
    },
    {
      "type": "Feature",
      "properties": {
        "booth": "C1"
      },
      "geometry": {
        "type": "Polygon",
        "coordinates": [
          [
            [
              140.1017498,
              36.110105
            ],
            [
              140.1017403,
              36.1101208
            ],
            [
              140.1017634,
              36.1101298
            ],
            [
              140.1017728,
              36.110114
            ],
            [
              140.1017498,
              36.110105
            ]
          ]
        ]
      }
    },
    {
      "type": "Feature",
      "properties": {
        "booth": "C2"
      },
      "geometry": {
        "type": "Polygon",
        "coordinates": [
          [
            [
              140.1017592,
              36.1100891
            ],
            [
              140.1017498,
              36.110105
            ],
            [
              140.1017728,
              36.110114
            ],
            [
              140.1017822,
              36.1100981
            ],
            [
              140.1017592,
              36.1100891
            ]
          ]
        ]
      }
    },
    {
      "type": "Feature",
      "properties": {
        "booth": "C3"
      },
      "geometry": {
        "type": "Polygon",
        "coordinates": [
          [
            [
              140.1017853,
              36.1100947
            ],
            [
              140.1017948,
              36.1100788
            ],
            [
              140.1017717,
              36.1100698
            ],
            [
              140.1017623,
              36.1100857
            ],
            [
              140.1017853,
              36.1100947
            ]
          ]
        ]
      }
    },
    {
      "type": "Feature",
      "properties": {
        "booth": "C4"
      },
      "geometry": {
        "type": "Polygon",
        "coordinates": [
          [
            [
              140.1017948,
              36.1100788
            ],
            [
              140.1018042,
              36.110063
            ],
            [
              140.1017812,
              36.110054
            ],
            [
              140.1017717,
              36.1100698
            ],
            [
              140.1017948,
              36.1100788
            ]
          ]
        ]
      }
    },
    {
      "type": "Feature",
      "properties": {
        "booth": "C5"
      },
      "geometry": {
        "type": "Polygon",
        "coordinates": [
          [
            [
              140.1018067,
              36.1100584
            ],
            [
              140.1018162,
              36.1100426
            ],
            [
              140.1017931,
              36.1100336
            ],
            [
              140.1017837,
              36.1100494
            ],
            [
              140.1018067,
              36.1100584
            ]
          ]
        ]
      }
    },
    {
      "type": "Feature",
      "properties": {
        "booth": "C6"
      },
      "geometry": {
        "type": "Polygon",
        "coordinates": [
          [
            [
              140.1018162,
              36.1100426
            ],
            [
              140.1018256,
              36.1100267
            ],
            [
              140.1018025,
              36.1100177
            ],
            [
              140.1017931,
              36.1100336
            ],
            [
              140.1018162,
              36.1100426
            ]
          ]
        ]
      }
    },
    {
      "type": "Feature",
      "properties": {
        "booth": "C7"
      },
      "geometry": {
        "type": "Polygon",
        "coordinates": [
          [
            [
              140.101815,
              36.1099975
            ],
            [
              140.1018056,
              36.1100133
            ],
            [
              140.1018286,
              36.1100224
            ],
            [
              140.1018381,
              36.1100065
            ],
            [
              140.101815,
              36.1099975
            ]
          ]
        ]
      }
    },
    {
      "type": "Feature",
      "properties": {
        "booth": "C8"
      },
      "geometry": {
        "type": "Polygon",
        "coordinates": [
          [
            [
              140.1018244,
              36.1099816
            ],
            [
              140.101815,
              36.1099975
            ],
            [
              140.1018381,
              36.1100065
            ],
            [
              140.1018475,
              36.1099906
            ],
            [
              140.1018244,
              36.1099816
            ]
          ]
        ]
      }
    },
    {
      "type": "Feature",
      "properties": {
        "booth": "D1"
      },
      "geometry": {
        "type": "Polygon",
        "coordinates": [
          [
            [
              140.1019603,
              36.1097349
            ],
            [
              140.101965,
              36.1097177
            ],
            [
              140.10194,
              36.1097133
            ],
            [
              140.1019353,
              36.1097305
            ],
            [
              140.1019603,
              36.1097349
            ]
          ]
        ]
      }
    },
    {
      "type": "Feature",
      "properties": {
        "booth": "D2"
      },
      "geometry": {
        "type": "Polygon",
        "coordinates": [
          [
            [
              140.101965,
              36.1097177
            ],
            [
              140.1019696,
              36.1097005
            ],
            [
              140.1019447,
              36.1096961
            ],
            [
              140.10194,
              36.1097133
            ],
            [
              140.101965,
              36.1097177
            ]
          ]
        ]
      }
    },
    {
      "type": "Feature",
      "properties": {
        "booth": "D3"
      },
      "geometry": {
        "type": "Polygon",
        "coordinates": [
          [
            [
              140.1019705,
              36.1096967
            ],
            [
              140.1019751,
              36.1096795
            ],
            [
              140.1019501,
              36.1096751
            ],
            [
              140.1019455,
              36.1096923
            ],
            [
              140.1019705,
              36.1096967
            ]
          ]
        ]
      }
    },
    {
      "type": "Feature",
      "properties": {
        "booth": "D4"
      },
      "geometry": {
        "type": "Polygon",
        "coordinates": [
          [
            [
              140.1019751,
              36.1096795
            ],
            [
              140.1019798,
              36.1096623
            ],
            [
              140.1019548,
              36.1096579
            ],
            [
              140.1019501,
              36.1096751
            ],
            [
              140.1019751,
              36.1096795
            ]
          ]
        ]
      }
    },
    {
      "type": "Feature",
      "properties": {
        "booth": "D5"
      },
      "geometry": {
        "type": "Polygon",
        "coordinates": [
          [
            [
              140.10196,
              36.1096375
            ],
            [
              140.1019554,
              36.1096547
            ],
            [
              140.1019804,
              36.1096592
            ],
            [
              140.101985,
              36.109642
            ],
            [
              140.10196,
              36.1096375
            ]
          ]
        ]
      }
    },
    {
      "type": "Feature",
      "properties": {
        "booth": "D6"
      },
      "geometry": {
        "type": "Polygon",
        "coordinates": [
          [
            [
              140.1019647,
              36.1096204
            ],
            [
              140.10196,
              36.1096375
            ],
            [
              140.101985,
              36.109642
            ],
            [
              140.1019897,
              36.1096248
            ],
            [
              140.1019647,
              36.1096204
            ]
          ]
        ]
      }
    },
    {
      "type": "Feature",
      "properties": {
        "booth": "D7"
      },
      "geometry": {
        "type": "Polygon",
        "coordinates": [
          [
            [
              140.1019702,
              36.1095981
            ],
            [
              140.1019655,
              36.1096153
            ],
            [
              140.1019895,
              36.1096195
            ],
            [
              140.1019941,
              36.1096023
            ],
            [
              140.1019702,
              36.1095981
            ]
          ]
        ]
      }
    },
    {
      "type": "Feature",
      "properties": {
        "booth": "D8"
      },
      "geometry": {
        "type": "Polygon",
        "coordinates": [
          [
            [
              140.1019749,
              36.1095809
            ],
            [
              140.1019702,
              36.1095981
            ],
            [
              140.1019941,
              36.1096023
            ],
            [
              140.1019988,
              36.1095851
            ],
            [
              140.1019749,
              36.1095809
            ]
          ]
        ]
      }
    },
    {
      "type": "Feature",
      "properties": {
        "booth": "E1"
      },
      "geometry": {
        "type": "Polygon",
        "coordinates": [
          [
            [
              140.1019474,
              36.109981
            ],
            [
              140.1019646,
              36.1099527
            ],
            [
              140.1019286,
              36.1099384
            ],
            [
              140.1019114,
              36.1099667
            ],
            [
              140.1019474,
              36.109981
            ]
          ]
        ]
      }
    },
    {
      "type": "Feature",
      "properties": {
        "booth": "E2"
      },
      "geometry": {
        "type": "Polygon",
        "coordinates": [
          [
            [
              140.1019646,
              36.1099527
            ],
            [
              140.1019817,
              36.1099245
            ],
            [
              140.1019457,
              36.1099101
            ],
            [
              140.1019286,
              36.1099384
            ],
            [
              140.1019646,
              36.1099527
            ]
          ]
        ]
      }
    },
    {
      "type": "Feature",
      "properties": {
        "booth": "E3"
      },
      "geometry": {
        "type": "Polygon",
        "coordinates": [
          [
            [
              140.1019817,
              36.1099245
            ],
            [
              140.1019989,
              36.1098962
            ],
            [
              140.1019629,
              36.1098818
            ],
            [
              140.1019457,
              36.1099101
            ],
            [
              140.1019817,
              36.1099245
            ]
          ]
        ]
      }
    },
    {
      "type": "Feature",
      "properties": {
        "booth": "E4"
      },
      "geometry": {
        "type": "Polygon",
        "coordinates": [
          [
            [
              140.1019989,
              36.1098962
            ],
            [
              140.1020161,
              36.1098679
            ],
            [
              140.1019801,
              36.1098535
            ],
            [
              140.1019629,
              36.1098818
            ],
            [
              140.1019989,
              36.1098962
            ]
          ]
        ]
      }
    },
    {
      "type": "Feature",
      "properties": {
        "booth": "E5"
      },
      "geometry": {
        "type": "Polygon",
        "coordinates": [
          [
            [
              140.1020161,
              36.1098679
            ],
            [
              140.1020332,
              36.1098396
            ],
            [
              140.1019972,
              36.1098253
            ],
            [
              140.1019801,
              36.1098535
            ],
            [
              140.1020161,
              36.1098679
            ]
          ]
        ]
      }
    },
    {
      "type": "Feature",
      "properties": {
        "booth": "E6"
      },
      "geometry": {
        "type": "Polygon",
        "coordinates": [
          [
            [
              140.1020332,
              36.1098396
            ],
            [
              140.1020504,
              36.1098114
            ],
            [
              140.1020144,
              36.109797
            ],
            [
              140.1019972,
              36.1098253
            ],
            [
              140.1020332,
              36.1098396
            ]
          ]
        ]
      }
    },
    {
      "type": "Feature",
      "properties": {
        "booth": "F1"
      },
      "geometry": {
        "type": "Polygon",
        "coordinates": [
          [
            [
              140.1017194,
              36.1090852
            ],
            [
              140.1017522,
              36.1090985
            ],
            [
              140.101774,
              36.1090629
            ],
            [
              140.1017412,
              36.1090496
            ],
            [
              140.1017194,
              36.1090852
            ]
          ]
        ]
      }
    },
    {
      "type": "Feature",
      "properties": {
        "booth": "F2"
      },
      "geometry": {
        "type": "Polygon",
        "coordinates": [
          [
            [
              140.1017522,
              36.1090985
            ],
            [
              140.101785,
              36.1091117
            ],
            [
              140.1018069,
              36.1090761
            ],
            [
              140.101774,
              36.1090629
            ],
            [
              140.1017522,
              36.1090985
            ]
          ]
        ]
      }
    },
    {
      "type": "Feature",
      "properties": {
        "booth": "F3"
      },
      "geometry": {
        "type": "Polygon",
        "coordinates": [
          [
            [
              140.1017879,
              36.1091124
            ],
            [
              140.1018207,
              36.1091256
            ],
            [
              140.1018425,
              36.10909
            ],
            [
              140.1018097,
              36.1090767
            ],
            [
              140.1017879,
              36.1091124
            ]
          ]
        ]
      }
    },
    {
      "type": "Feature",
      "properties": {
        "booth": "F4"
      },
      "geometry": {
        "type": "Polygon",
        "coordinates": [
          [
            [
              140.1018207,
              36.1091256
            ],
            [
              140.1018535,
              36.1091388
            ],
            [
              140.1018753,
              36.1091032
            ],
            [
              140.1018425,
              36.10909
            ],
            [
              140.1018207,
              36.1091256
            ]
          ]
        ]
      }
    },
    {
      "type": "Feature",
      "properties": {
        "booth": "G1"
      },
      "geometry": {
        "type": "Polygon",
        "coordinates": [
          [
            [
              140.102315,
              36.1085153
            ],
            [
              140.1023371,
              36.1084807
            ],
            [
              140.1023077,
              36.1084684
            ],
            [
              140.1022856,
              36.1085029
            ],
            [
              140.102315,
              36.1085153
            ]
          ]
        ]
      }
    },
    {
      "type": "Feature",
      "properties": {
        "booth": "G2"
      },
      "geometry": {
        "type": "Polygon",
        "coordinates": [
          [
            [
              140.1023371,
              36.1084807
            ],
            [
              140.1023592,
              36.1084462
            ],
            [
              140.1023298,
              36.1084339
            ],
            [
              140.1023077,
              36.1084684
            ],
            [
              140.1023371,
              36.1084807
            ]
          ]
        ]
      }
    },
    {
      "type": "Feature",
      "properties": {
        "booth": "G3"
      },
      "geometry": {
        "type": "Polygon",
        "coordinates": [
          [
            [
              140.1023597,
              36.1084463
            ],
            [
              140.1024032,
              36.1084646
            ],
            [
              140.1024187,
              36.1084403
            ],
            [
              140.1023752,
              36.108422
            ],
            [
              140.1023597,
              36.1084463
            ]
          ]
        ]
      }
    },
    {
      "type": "Feature",
      "properties": {
        "booth": "G4"
      },
      "geometry": {
        "type": "Polygon",
        "coordinates": [
          [
            [
              140.1024032,
              36.1084646
            ],
            [
              140.1024467,
              36.1084829
            ],
            [
              140.1024622,
              36.1084586
            ],
            [
              140.1024187,
              36.1084403
            ],
            [
              140.1024032,
              36.1084646
            ]
          ]
        ]
      }
    },
    {
      "type": "Feature",
      "properties": {
        "booth": "G5"
      },
      "geometry": {
        "type": "Polygon",
        "coordinates": [
          [
            [
              140.1024467,
              36.1084829
            ],
            [
              140.1024902,
              36.1085012
            ],
            [
              140.1025057,
              36.1084769
            ],
            [
              140.1024622,
              36.1084586
            ],
            [
              140.1024467,
              36.1084829
            ]
          ]
        ]
      }
    },
    {
      "type": "Feature",
      "properties": {
        "booth": "H1"
      },
      "geometry": {
        "type": "Polygon",
        "coordinates": [
          [
            [
              140.1026056,
              36.108379
            ],
            [
              140.1026445,
              36.1083953
            ],
            [
              140.1026576,
              36.1083749
            ],
            [
              140.1026186,
              36.1083585
            ],
            [
              140.1026056,
              36.108379
            ]
          ]
        ]
      }
    },
    {
      "type": "Feature",
      "properties": {
        "booth": "H2"
      },
      "geometry": {
        "type": "Polygon",
        "coordinates": [
          [
            [
              140.1026445,
              36.1083953
            ],
            [
              140.1026834,
              36.1084117
            ],
            [
              140.1026965,
              36.1083913
            ],
            [
              140.1026576,
              36.1083749
            ],
            [
              140.1026445,
              36.1083953
            ]
          ]
        ]
      }
    },
    {
      "type": "Feature",
      "properties": {
        "booth": "H3"
      },
      "geometry": {
        "type": "Polygon",
        "coordinates": [
          [
            [
              140.1026834,
              36.1084117
            ],
            [
              140.1027224,
              36.1084281
            ],
            [
              140.1027354,
              36.1084077
            ],
            [
              140.1026965,
              36.1083913
            ],
            [
              140.1026834,
              36.1084117
            ]
          ]
        ]
      }
    },
    {
      "type": "Feature",
      "properties": {
        "booth": "H4"
      },
      "geometry": {
        "type": "Polygon",
        "coordinates": [
          [
            [
              140.1027224,
              36.1084281
            ],
            [
              140.1027613,
              36.1084445
            ],
            [
              140.1027744,
              36.108424
            ],
            [
              140.1027354,
              36.1084077
            ],
            [
              140.1027224,
              36.1084281
            ]
          ]
        ]
      }
    },
    {
      "type": "Feature",
      "properties": {
        "booth": "H5"
      },
      "geometry": {
        "type": "Polygon",
        "coordinates": [
          [
            [
              140.1027613,
              36.1084445
            ],
            [
              140.1028002,
              36.1084608
            ],
            [
              140.1028133,
              36.1084404
            ],
            [
              140.1027744,
              36.108424
            ],
            [
              140.1027613,
              36.1084445
            ]
          ]
        ]
      }
    },
    {
      "type": "Feature",
      "properties": {
        "booth": "J1"
      },
      "geometry": {
        "type": "Polygon",
        "coordinates": [
          [
            [
              140.102664,
              36.108277
            ],
            [
              140.1027042,
              36.1082939
            ],
            [
              140.1027156,
              36.1082761
            ],
            [
              140.1026754,
              36.1082591
            ],
            [
              140.102664,
              36.108277
            ]
          ]
        ]
      }
    },
    {
      "type": "Feature",
      "properties": {
        "booth": "J2"
      },
      "geometry": {
        "type": "Polygon",
        "coordinates": [
          [
            [
              140.1027042,
              36.1082939
            ],
            [
              140.1027445,
              36.1083108
            ],
            [
              140.1027559,
              36.108293
            ],
            [
              140.1027156,
              36.1082761
            ],
            [
              140.1027042,
              36.1082939
            ]
          ]
        ]
      }
    },
    {
      "type": "Feature",
      "properties": {
        "booth": "J3"
      },
      "geometry": {
        "type": "Polygon",
        "coordinates": [
          [
            [
              140.1027445,
              36.1083108
            ],
            [
              140.1027847,
              36.1083278
            ],
            [
              140.1027961,
              36.1083099
            ],
            [
              140.1027559,
              36.108293
            ],
            [
              140.1027445,
              36.1083108
            ]
          ]
        ]
      }
    },
    {
      "type": "Feature",
      "properties": {
        "booth": "J4"
      },
      "geometry": {
        "type": "Polygon",
        "coordinates": [
          [
            [
              140.1027847,
              36.1083278
            ],
            [
              140.102825,
              36.1083447
            ],
            [
              140.1028364,
              36.1083269
            ],
            [
              140.1027961,
              36.1083099
            ],
            [
              140.1027847,
              36.1083278
            ]
          ]
        ]
      }
    },
    {
      "type": "Feature",
      "properties": {
        "booth": "K1"
      },
      "geometry": {
        "type": "Polygon",
        "coordinates": [
          [
            [
              140.1024056,
              36.108246
            ],
            [
              140.1024293,
              36.1082559
            ],
            [
              140.1024442,
              36.1082327
            ],
            [
              140.1024205,
              36.1082227
            ],
            [
              140.1024056,
              36.108246
            ]
          ]
        ]
      }
    },
    {
      "type": "Feature",
      "properties": {
        "booth": "K2"
      },
      "geometry": {
        "type": "Polygon",
        "coordinates": [
          [
            [
              140.1024293,
              36.1082559
            ],
            [
              140.102453,
              36.1082659
            ],
            [
              140.1024678,
              36.1082427
            ],
            [
              140.1024442,
              36.1082327
            ],
            [
              140.1024293,
              36.1082559
            ]
          ]
        ]
      }
    },
    {
      "type": "Feature",
      "properties": {
        "booth": "K3"
      },
      "geometry": {
        "type": "Polygon",
        "coordinates": [
          [
            [
              140.1024578,
              36.1082646
            ],
            [
              140.1024887,
              36.1082778
            ],
            [
              140.1024993,
              36.1082615
            ],
            [
              140.1024684,
              36.1082483
            ],
            [
              140.1024578,
              36.1082646
            ]
          ]
        ]
      }
    },
    {
      "type": "Feature",
      "properties": {
        "booth": "K4"
      },
      "geometry": {
        "type": "Polygon",
        "coordinates": [
          [
            [
              140.102492,
              36.1082824
            ],
            [
              140.1025157,
              36.1082924
            ],
            [
              140.1025306,
              36.1082692
            ],
            [
              140.1025069,
              36.1082592
            ],
            [
              140.102492,
              36.1082824
            ]
          ]
        ]
      }
    },
    {
      "type": "Feature",
      "properties": {
        "booth": "K5"
      },
      "geometry": {
        "type": "Polygon",
        "coordinates": [
          [
            [
              140.1025157,
              36.1082924
            ],
            [
              140.1025394,
              36.1083024
            ],
            [
              140.1025543,
              36.1082791
            ],
            [
              140.1025306,
              36.1082692
            ],
            [
              140.1025157,
              36.1082924
            ]
          ]
        ]
      }
    },
    {
      "type": "Feature",
      "properties": {
        "booth": "L1"
      },
      "geometry": {
        "type": "Polygon",
        "coordinates": [
          [
            [
              140.1021442,
              36.1079204
            ],
            [
              140.1021387,
              36.1078879
            ],
            [
              140.102091,
              36.1078932
            ],
            [
              140.1020966,
              36.1079257
            ],
            [
              140.1021442,
              36.1079204
            ]
          ]
        ]
      }
    },
    {
      "type": "Feature",
      "properties": {
        "booth": "L2"
      },
      "geometry": {
        "type": "Polygon",
        "coordinates": [
          [
            [
              140.1021387,
              36.1078879
            ],
            [
              140.1021331,
              36.1078554
            ],
            [
              140.1020854,
              36.1078607
            ],
            [
              140.102091,
              36.1078932
            ],
            [
              140.1021387,
              36.1078879
            ]
          ]
        ]
      }
    },
    {
      "type": "Feature",
      "properties": {
        "booth": "L3"
      },
      "geometry": {
        "type": "Polygon",
        "coordinates": [
          [
            [
              140.102204,
              36.107575
            ],
            [
              140.1022018,
              36.1076322
            ],
            [
              140.102253,
              36.1076335
            ],
            [
              140.1022552,
              36.1075763
            ],
            [
              140.102204,
              36.107575
            ]
          ]
        ]
      }
    },
    {
      "type": "Feature",
      "properties": {
        "booth": "M1"
      },
      "geometry": {
        "type": "Polygon",
        "coordinates": [
          [
            [
              140.102114,
              36.1074879
            ],
            [
              140.1020765,
              36.1075002
            ],
            [
              140.1020946,
              36.1075364
            ],
            [
              140.1021321,
              36.1075241
            ],
            [
              140.102114,
              36.1074879
            ]
          ]
        ]
      }
    },
    {
      "type": "Feature",
      "properties": {
        "booth": "M2"
      },
      "geometry": {
        "type": "Polygon",
        "coordinates": [
          [
            [
              140.1020765,
              36.1075002
            ],
            [
              140.102039,
              36.1075125
            ],
            [
              140.102057,
              36.1075487
            ],
            [
              140.1020946,
              36.1075364
            ],
            [
              140.1020765,
              36.1075002
            ]
          ]
        ]
      }
    },
    {
      "type": "Feature",
      "properties": {
        "booth": "M3"
      },
      "geometry": {
        "type": "Polygon",
        "coordinates": [
          [
            [
              140.1020255,
              36.1075263
            ],
            [
              140.1019843,
              36.1075363
            ],
            [
              140.1020008,
              36.1075811
            ],
            [
              140.102042,
              36.107571
            ],
            [
              140.1020255,
              36.1075263
            ]
          ]
        ]
      }
    },
    {
      "type": "Feature",
      "properties": {
        "booth": "M4"
      },
      "geometry": {
        "type": "Polygon",
        "coordinates": [
          [
            [
              140.1019843,
              36.1075363
            ],
            [
              140.101943,
              36.1075464
            ],
            [
              140.1019596,
              36.1075911
            ],
            [
              140.1020008,
              36.1075811
            ],
            [
              140.1019843,
              36.1075363
            ]
          ]
        ]
      }
    },
    {
      "type": "Feature",
      "properties": {
        "booth": "M5"
      },
      "geometry": {
        "type": "Polygon",
        "coordinates": [
          [
            [
              140.1019204,
              36.1075471
            ],
            [
              140.1018974,
              36.1075176
            ],
            [
              140.1018487,
              36.1075427
            ],
            [
              140.1018718,
              36.1075721
            ],
            [
              140.1019204,
              36.1075471
            ]
          ]
        ]
      }
    },
    {
      "type": "Feature",
      "properties": {
        "booth": "M6"
      },
      "geometry": {
        "type": "Polygon",
        "coordinates": [
          [
            [
              140.1018974,
              36.1075176
            ],
            [
              140.1018743,
              36.1074882
            ],
            [
              140.1018257,
              36.1075132
            ],
            [
              140.1018487,
              36.1075427
            ],
            [
              140.1018974,
              36.1075176
            ]
          ]
        ]
      }
    },
    {
      "type": "Feature",
      "properties": {
        "booth": "M7"
      },
      "geometry": {
        "type": "Polygon",
        "coordinates": [
          [
            [
              140.101825,
              36.1074391
            ],
            [
              140.1018151,
              36.1074731
            ],
            [
              140.1018712,
              36.1074838
            ],
            [
              140.101881,
              36.1074498
            ],
            [
              140.101825,
              36.1074391
            ]
          ]
        ]
      }
    },
    {
      "type": "Feature",
      "properties": {
        "booth": "M8"
      },
      "geometry": {
        "type": "Polygon",
        "coordinates": [
          [
            [
              140.1018348,
              36.1074051
            ],
            [
              140.101825,
              36.1074391
            ],
            [
              140.101881,
              36.1074498
            ],
            [
              140.1018909,
              36.1074158
            ],
            [
              140.1018348,
              36.1074051
            ]
          ]
        ]
      }
    },
    {
      "type": "Feature",
      "properties": {
        "booth": "M9"
      },
      "geometry": {
        "type": "Polygon",
        "coordinates": [
          [
            [
              140.1018375,
              36.107396
            ],
            [
              140.101894,
              36.107405
            ],
            [
              140.1019023,
              36.1073707
            ],
            [
              140.1018458,
              36.1073618
            ],
            [
              140.1018375,
              36.107396
            ]
          ]
        ]
      }
    },
    {
      "type": "Feature",
      "properties": {
        "booth": "M10"
      },
      "geometry": {
        "type": "Polygon",
        "coordinates": [
          [
            [
              140.1018458,
              36.1073618
            ],
            [
              140.1019023,
              36.1073707
            ],
            [
              140.1019106,
              36.1073365
            ],
            [
              140.1018541,
              36.1073275
            ],
            [
              140.1018458,
              36.1073618
            ]
          ]
        ]
      }
    },
    {
      "type": "Feature",
      "properties": {
        "booth": "M11"
      },
      "geometry": {
        "type": "Polygon",
        "coordinates": [
          [
            [
              140.1018635,
              36.107288
            ],
            [
              140.1018557,
              36.1073223
            ],
            [
              140.1019124,
              36.1073307
            ],
            [
              140.1019202,
              36.1072964
            ],
            [
              140.1018635,
              36.107288
            ]
          ]
        ]
      }
    },
    {
      "type": "Feature",
      "properties": {
        "booth": "M12"
      },
      "geometry": {
        "type": "Polygon",
        "coordinates": [
          [
            [
              140.1018713,
              36.1072537
            ],
            [
              140.1018635,
              36.107288
            ],
            [
              140.1019202,
              36.1072964
            ],
            [
              140.101928,
              36.1072621
            ],
            [
              140.1018713,
              36.1072537
            ]
          ]
        ]
      }
    },
    {
      "type": "Feature",
      "properties": {
        "booth": "M13"
      },
      "geometry": {
        "type": "Polygon",
        "coordinates": [
          [
            [
              140.1018987,
              36.107214
            ],
            [
              140.1019391,
              36.1072473
            ],
            [
              140.1019698,
              36.1072228
            ],
            [
              140.1019293,
              36.1071895
            ],
            [
              140.1018987,
              36.107214
            ]
          ]
        ]
      }
    },
    {
      "type": "Feature",
      "properties": {
        "booth": "M14"
      },
      "geometry": {
        "type": "Polygon",
        "coordinates": [
          [
            [
              140.1019293,
              36.1071895
            ],
            [
              140.1019698,
              36.1072228
            ],
            [
              140.1020004,
              36.1071983
            ],
            [
              140.10196,
              36.1071651
            ],
            [
              140.1019293,
              36.1071895
            ]
          ]
        ]
      }
    },
    {
      "type": "Feature",
      "properties": {
        "booth": "M15"
      },
      "geometry": {
        "type": "Polygon",
        "coordinates": [
          [
            [
              140.1020828,
              36.107115
            ],
            [
              140.1020142,
              36.1071286
            ],
            [
              140.1020264,
              36.1071689
            ],
            [
              140.102095,
              36.1071553
            ],
            [
              140.1020828,
              36.107115
            ]
          ]
        ]
      }
    },
    {
      "type": "Feature",
      "properties": {
        "booth": "N1"
      },
      "geometry": {
        "type": "Polygon",
        "coordinates": [
          [
            [
              140.1024973,
              36.1059466
            ],
            [
              140.1025077,
              36.1059176
            ],
            [
              140.1024659,
              36.1059079
            ],
            [
              140.1024556,
              36.1059368
            ],
            [
              140.1024973,
              36.1059466
            ]
          ]
        ]
      }
    },
    {
      "type": "Feature",
      "properties": {
        "booth": "N2"
      },
      "geometry": {
        "type": "Polygon",
        "coordinates": [
          [
            [
              140.1025077,
              36.1059176
            ],
            [
              140.102518,
              36.1058887
            ],
            [
              140.1024762,
              36.1058789
            ],
            [
              140.1024659,
              36.1059079
            ],
            [
              140.1025077,
              36.1059176
            ]
          ]
        ]
      }
    },
    {
      "type": "Feature",
      "properties": {
        "booth": "P1"
      },
      "geometry": {
        "type": "Polygon",
        "coordinates": [
          [
            [
              140.1023323,
              36.1054467
            ],
            [
              140.1023687,
              36.1054552
            ],
            [
              140.1023802,
              36.1054229
            ],
            [
              140.1023439,
              36.1054144
            ],
            [
              140.1023323,
              36.1054467
            ]
          ]
        ]
      }
    },
    {
      "type": "Feature",
      "properties": {
        "booth": "P2"
      },
      "geometry": {
        "type": "Polygon",
        "coordinates": [
          [
            [
              140.1023687,
              36.1054552
            ],
            [
              140.102405,
              36.1054637
            ],
            [
              140.1024165,
              36.1054314
            ],
            [
              140.1023802,
              36.1054229
            ],
            [
              140.1023687,
              36.1054552
            ]
          ]
        ]
      }
    },
    {
      "type": "Feature",
      "properties": {
        "booth": "P3"
      },
      "geometry": {
        "type": "Polygon",
        "coordinates": [
          [
            [
              140.1024168,
              36.1054666
            ],
            [
              140.1024895,
              36.1054836
            ],
            [
              140.102501,
              36.1054513
            ],
            [
              140.1024283,
              36.1054343
            ],
            [
              140.1024168,
              36.1054666
            ]
          ]
        ]
      }
    },
    {
      "type": "Feature",
      "properties": {
        "booth": "P4"
      },
      "geometry": {
        "type": "Polygon",
        "coordinates": [
          [
            [
              140.1024889,
              36.1054816
            ],
            [
              140.1024995,
              36.1054519
            ],
            [
              140.1024656,
              36.105444
            ],
            [
              140.102455,
              36.1054736
            ],
            [
              140.1024889,
              36.1054816
            ]
          ]
        ]
      }
    },
    {
      "type": "Feature",
      "properties": {
        "booth": "Q1"
      },
      "geometry": {
        "type": "Polygon",
        "coordinates": [
          [
            [
              140.102591,
              36.1048168
            ],
            [
              140.1025996,
              36.1047928
            ],
            [
              140.1025583,
              36.1047831
            ],
            [
              140.1025497,
              36.1048071
            ],
            [
              140.102591,
              36.1048168
            ]
          ]
        ]
      }
    },
    {
      "type": "Feature",
      "properties": {
        "booth": "Q2"
      },
      "geometry": {
        "type": "Polygon",
        "coordinates": [
          [
            [
              140.1025996,
              36.1047928
            ],
            [
              140.1026082,
              36.1047687
            ],
            [
              140.1025669,
              36.104759
            ],
            [
              140.1025583,
              36.1047831
            ],
            [
              140.1025996,
              36.1047928
            ]
          ]
        ]
      }
    },
    {
      "type": "Feature",
      "properties": {
        "booth": "Q3"
      },
      "geometry": {
        "type": "Polygon",
        "coordinates": [
          [
            [
              140.1026082,
              36.1047687
            ],
            [
              140.1026168,
              36.1047447
            ],
            [
              140.1025754,
              36.104735
            ],
            [
              140.1025669,
              36.104759
            ],
            [
              140.1026082,
              36.1047687
            ]
          ]
        ]
      }
    },
    {
      "type": "Feature",
      "properties": {
        "booth": "Q4"
      },
      "geometry": {
        "type": "Polygon",
        "coordinates": [
          [
            [
              140.1025351,
              36.1046851
            ],
            [
              140.1025888,
              36.1046977
            ],
            [
              140.1025982,
              36.1046713
            ],
            [
              140.1025445,
              36.1046587
            ],
            [
              140.1025351,
              36.1046851
            ]
          ]
        ]
      }
    },
    {
      "type": "Feature",
      "properties": {
        "booth": "Q5"
      },
      "geometry": {
        "type": "Polygon",
        "coordinates": [
          [
            [
              140.1027183,
              36.1047448
            ],
            [
              140.1027326,
              36.10478
            ],
            [
              140.1027641,
              36.1047716
            ],
            [
              140.1027498,
              36.1047364
            ],
            [
              140.1027183,
              36.1047448
            ]
          ]
        ]
      }
    },
    {
      "type": "Feature",
      "properties": {
        "booth": "Q6"
      },
      "geometry": {
        "type": "Polygon",
        "coordinates": [
          [
            [
              140.1026967,
              36.1047088
            ],
            [
              140.1027166,
              36.1047422
            ],
            [
              140.1027465,
              36.1047306
            ],
            [
              140.1027266,
              36.1046972
            ],
            [
              140.1026967,
              36.1047088
            ]
          ]
        ]
      }
    },
    {
      "type": "Feature",
      "properties": {
        "booth": "R1"
      },
      "geometry": {
        "type": "Polygon",
        "coordinates": [
          [
            [
              140.1026936,
              36.103943
            ],
            [
              140.1026989,
              36.103912
            ],
            [
              140.102674,
              36.1039092
            ],
            [
              140.1026687,
              36.1039402
            ],
            [
              140.1026936,
              36.103943
            ]
          ]
        ]
      }
    },
    {
      "type": "Feature",
      "properties": {
        "booth": "R2"
      },
      "geometry": {
        "type": "Polygon",
        "coordinates": [
          [
            [
              140.1027009,
              36.1039027
            ],
            [
              140.1027046,
              36.1038815
            ],
            [
              140.102675,
              36.1038781
            ],
            [
              140.1026713,
              36.1038993
            ],
            [
              140.1027009,
              36.1039027
            ]
          ]
        ]
      }
    },
    {
      "type": "Feature",
      "properties": {
        "booth": "R3"
      },
      "geometry": {
        "type": "Polygon",
        "coordinates": [
          [
            [
              140.1027046,
              36.1038815
            ],
            [
              140.1027083,
              36.1038603
            ],
            [
              140.1026786,
              36.1038569
            ],
            [
              140.102675,
              36.1038781
            ],
            [
              140.1027046,
              36.1038815
            ]
          ]
        ]
      }
    },
    {
      "type": "Feature",
      "properties": {
        "booth": "R4"
      },
      "geometry": {
        "type": "Polygon",
        "coordinates": [
          [
            [
              140.1027436,
              36.1038627
            ],
            [
              140.1027698,
              36.1038655
            ],
            [
              140.1027737,
              36.1038415
            ],
            [
              140.1027475,
              36.1038386
            ],
            [
              140.1027436,
              36.1038627
            ]
          ]
        ]
      }
    },
    {
      "type": "Feature",
      "properties": {
        "booth": "R5"
      },
      "geometry": {
        "type": "Polygon",
        "coordinates": [
          [
            [
              140.1027698,
              36.1038655
            ],
            [
              140.1027959,
              36.1038683
            ],
            [
              140.1027999,
              36.1038443
            ],
            [
              140.1027737,
              36.1038415
            ],
            [
              140.1027698,
              36.1038655
            ]
          ]
        ]
      }
    },
    {
      "type": "Feature",
      "properties": {
        "booth": "R6"
      },
      "geometry": {
        "type": "Polygon",
        "coordinates": [
          [
            [
              140.1027655,
              36.103796
            ],
            [
              140.1027618,
              36.1038172
            ],
            [
              140.1027915,
              36.1038206
            ],
            [
              140.1027952,
              36.1037994
            ],
            [
              140.1027655,
              36.103796
            ]
          ]
        ]
      }
    },
    {
      "type": "Feature",
      "properties": {
        "booth": "R7"
      },
      "geometry": {
        "type": "Polygon",
        "coordinates": [
          [
            [
              140.1027692,
              36.1037748
            ],
            [
              140.1027655,
              36.103796
            ],
            [
              140.1027952,
              36.1037994
            ],
            [
              140.1027989,
              36.1037782
            ],
            [
              140.1027692,
              36.1037748
            ]
          ]
        ]
      }
    },
    {
      "type": "Feature",
      "properties": {
        "booth": "R8"
      },
      "geometry": {
        "type": "Polygon",
        "coordinates": [
          [
            [
              140.1028008,
              36.103761
            ],
            [
              140.1028045,
              36.1037398
            ],
            [
              140.1027748,
              36.1037364
            ],
            [
              140.1027711,
              36.1037576
            ],
            [
              140.1028008,
              36.103761
            ]
          ]
        ]
      }
    },
    {
      "type": "Feature",
      "properties": {
        "booth": "R9"
      },
      "geometry": {
        "type": "Polygon",
        "coordinates": [
          [
            [
              140.1028045,
              36.1037398
            ],
            [
              140.1028082,
              36.1037186
            ],
            [
              140.1027785,
              36.1037152
            ],
            [
              140.1027748,
              36.1037364
            ],
            [
              140.1028045,
              36.1037398
            ]
          ]
        ]
      }
    },
    {
      "type": "Feature",
      "properties": {
        "booth": "R10"
      },
      "geometry": {
        "type": "Polygon",
        "coordinates": [
          [
            [
              140.1028105,
              36.1037024
            ],
            [
              140.1028142,
              36.1036812
            ],
            [
              140.1027846,
              36.1036778
            ],
            [
              140.1027809,
              36.1036989
            ],
            [
              140.1028105,
              36.1037024
            ]
          ]
        ]
      }
    },
    {
      "type": "Feature",
      "properties": {
        "booth": "R11"
      },
      "geometry": {
        "type": "Polygon",
        "coordinates": [
          [
            [
              140.1028142,
              36.1036812
            ],
            [
              140.102818,
              36.10366
            ],
            [
              140.1027883,
              36.1036566
            ],
            [
              140.1027846,
              36.1036778
            ],
            [
              140.1028142,
              36.1036812
            ]
          ]
        ]
      }
    },
    {
      "type": "Feature",
      "properties": {
        "booth": "S1"
      },
      "geometry": {
        "type": "Polygon",
        "coordinates": [
          [
            [
              140.1028792,
              36.1031894
            ],
            [
              140.1028755,
              36.1032106
            ],
            [
              140.1029052,
              36.103214
            ],
            [
              140.1029089,
              36.1031929
            ],
            [
              140.1028792,
              36.1031894
            ]
          ]
        ]
      }
    },
    {
      "type": "Feature",
      "properties": {
        "booth": "S2"
      },
      "geometry": {
        "type": "Polygon",
        "coordinates": [
          [
            [
              140.1028829,
              36.1031683
            ],
            [
              140.1028792,
              36.1031894
            ],
            [
              140.1029089,
              36.1031929
            ],
            [
              140.1029126,
              36.1031717
            ],
            [
              140.1028829,
              36.1031683
            ]
          ]
        ]
      }
    },
    {
      "type": "Feature",
      "properties": {
        "booth": "S3"
      },
      "geometry": {
        "type": "Polygon",
        "coordinates": [
          [
            [
              140.1029138,
              36.1031669
            ],
            [
              140.1029175,
              36.1031457
            ],
            [
              140.1028878,
              36.1031423
            ],
            [
              140.1028841,
              36.1031635
            ],
            [
              140.1029138,
              36.1031669
            ]
          ]
        ]
      }
    },
    {
      "type": "Feature",
      "properties": {
        "booth": "S4"
      },
      "geometry": {
        "type": "Polygon",
        "coordinates": [
          [
            [
              140.1029175,
              36.1031457
            ],
            [
              140.1029212,
              36.1031245
            ],
            [
              140.1028915,
              36.1031211
            ],
            [
              140.1028878,
              36.1031423
            ],
            [
              140.1029175,
              36.1031457
            ]
          ]
        ]
      }
    },
    {
      "type": "Feature",
      "properties": {
        "booth": "S5"
      },
      "geometry": {
        "type": "Polygon",
        "coordinates": [
          [
            [
              140.1028984,
              36.1030641
            ],
            [
              140.1028947,
              36.1030853
            ],
            [
              140.1029244,
              36.1030887
            ],
            [
              140.1029281,
              36.1030675
            ],
            [
              140.1028984,
              36.1030641
            ]
          ]
        ]
      }
    },
    {
      "type": "Feature",
      "properties": {
        "booth": "S6"
      },
      "geometry": {
        "type": "Polygon",
        "coordinates": [
          [
            [
              140.1029021,
              36.1030429
            ],
            [
              140.1028984,
              36.1030641
            ],
            [
              140.1029281,
              36.1030675
            ],
            [
              140.1029318,
              36.1030463
            ],
            [
              140.1029021,
              36.1030429
            ]
          ]
        ]
      }
    },
    {
      "type": "Feature",
      "properties": {
        "booth": "S7"
      },
      "geometry": {
        "type": "Polygon",
        "coordinates": [
          [
            [
              140.102942,
              36.1029608
            ],
            [
              140.1029457,
              36.1029396
            ],
            [
              140.102916,
              36.1029362
            ],
            [
              140.1029123,
              36.1029574
            ],
            [
              140.102942,
              36.1029608
            ]
          ]
        ]
      }
    },
    {
      "type": "Feature",
      "properties": {
        "booth": "S8"
      },
      "geometry": {
        "type": "Polygon",
        "coordinates": [
          [
            [
              140.1029457,
              36.1029396
            ],
            [
              140.1029494,
              36.1029184
            ],
            [
              140.1029197,
              36.102915
            ],
            [
              140.102916,
              36.1029362
            ],
            [
              140.1029457,
              36.1029396
            ]
          ]
        ]
      }
    },
    {
      "type": "Feature",
      "properties": {
        "booth": "T1"
      },
      "geometry": {
        "type": "Polygon",
        "coordinates": [
          [
            [
              140.1030234,
              36.1031488
            ],
            [
              140.1030495,
              36.1031517
            ],
            [
              140.1030537,
              36.1031277
            ],
            [
              140.1030275,
              36.1031247
            ],
            [
              140.1030234,
              36.1031488
            ]
          ]
        ]
      }
    },
    {
      "type": "Feature",
      "properties": {
        "booth": "T2"
      },
      "geometry": {
        "type": "Polygon",
        "coordinates": [
          [
            [
              140.1030495,
              36.1031517
            ],
            [
              140.1030756,
              36.1031547
            ],
            [
              140.1030798,
              36.1031306
            ],
            [
              140.1030537,
              36.1031277
            ],
            [
              140.1030495,
              36.1031517
            ]
          ]
        ]
      }
    },
    {
      "type": "Feature",
      "properties": {
        "booth": "T3"
      },
      "geometry": {
        "type": "Polygon",
        "coordinates": [
          [
            [
              140.1030855,
              36.1031553
            ],
            [
              140.1031117,
              36.1031583
            ],
            [
              140.1031158,
              36.1031342
            ],
            [
              140.1030897,
              36.1031313
            ],
            [
              140.1030855,
              36.1031553
            ]
          ]
        ]
      }
    },
    {
      "type": "Feature",
      "properties": {
        "booth": "T4"
      },
      "geometry": {
        "type": "Polygon",
        "coordinates": [
          [
            [
              140.1031117,
              36.1031583
            ],
            [
              140.1031378,
              36.1031613
            ],
            [
              140.103142,
              36.1031372
            ],
            [
              140.1031158,
              36.1031342
            ],
            [
              140.1031117,
              36.1031583
            ]
          ]
        ]
      }
    },
    {
      "type": "Feature",
      "properties": {
        "booth": "T5"
      },
      "geometry": {
        "type": "Polygon",
        "coordinates": [
          [
            [
              140.1031801,
              36.1031395
            ],
            [
              140.103154,
              36.1031365
            ],
            [
              140.1031498,
              36.1031606
            ],
            [
              140.103176,
              36.1031635
            ],
            [
              140.1031801,
              36.1031395
            ]
          ]
        ]
      }
    },
    {
      "type": "Feature",
      "properties": {
        "booth": "T6"
      },
      "geometry": {
        "type": "Polygon",
        "coordinates": [
          [
            [
              140.1032063,
              36.1031425
            ],
            [
              140.1031801,
              36.1031395
            ],
            [
              140.103176,
              36.1031635
            ],
            [
              140.1032021,
              36.1031665
            ],
            [
              140.1032063,
              36.1031425
            ]
          ]
        ]
      }
    }
  ]
}