{
  "type": "FeatureCollection",
  "note": "建物フットプリント（© OpenStreetMap contributors (ODbL) を加工）。placeId で place.ts と結合。",
  "features": [
    {
      "type": "Feature",
      "properties": {
        "placeId": "bldg-3a",
        "name": "3A"
      },
      "geometry": {
        "type": "Polygon",
        "coordinates": [
          [
            [
              140.1008308,
              36.1109613
            ],
            [
              140.1007052,
              36.1109104
            ],
            [
              140.1005043,
              36.1108245
            ],
            [
              140.1004601,
              36.1108056
            ],
            [
              140.1004107,
              36.1107845
            ],
            [
              140.1003078,
              36.1107405
            ],
            [
              140.100461,
              36.1104783
            ],
            [
              140.100627,
              36.1105419
            ],
            [
              140.1007245,
              36.1103842
            ],
            [
              140.1006478,
              36.1103477
            ],
            [
              140.100656,
              36.1103347
            ],
            [
              140.1008528,
              36.1100345
            ],
            [
              140.1009446,
              36.1100672
            ],
            [
              140.1009259,
              36.1100954
            ],
            [
              140.1010143,
              36.1101376
            ],
            [
              140.1010694,
              36.1102979
            ],
            [
              140.1007961,
              36.1107184
            ],
            [
              140.1008327,
              36.1108375
            ],
            [
              140.1008915,
              36.1108646
            ],
            [
              140.1008308,
              36.1109613
            ]
          ]
        ]
      }
    },
    {
      "type": "Feature",
      "properties": {
        "placeId": "bldg-3b",
        "name": "3B"
      },
      "geometry": {
        "type": "Polygon",
        "coordinates": [
          [
            [
              140.1001802,
              36.111395
            ],
            [
              140.1001495,
              36.1113828
            ],
            [
              140.1000426,
              36.1113402
            ],
            [
              140.1001145,
              36.1112175
            ],
            [
              140.1001249,
              36.1112014
            ],
            [
              140.1002406,
              36.1110157
            ],
            [
              140.1000975,
              36.1109587
            ],
            [
              140.1001874,
              36.1108112
            ],
            [
              140.1002457,
              36.1108344
            ],
            [
              140.1003505,
              36.1108761
            ],
            [
              140.1004038,
              36.1108974
            ],
            [
              140.1004147,
              36.1109017
            ],
            [
              140.1004421,
              36.1109126
            ],
            [
              140.1004209,
              36.1109473
            ],
            [
              140.1004875,
              36.1109738
            ],
            [
              140.1002657,
              36.1113375
            ],
            [
              140.1002251,
              36.1113214
            ],
            [
              140.1001802,
              36.111395
            ]
          ]
        ]
      }
    },
    {
      "type": "Feature",
      "properties": {
        "placeId": "bldg-2c",
        "name": "2C棟"
      },
      "geometry": {
        "type": "Polygon",
        "coordinates": [
          [
            [
              140.1013858,
              36.1114624
            ],
            [
              140.101215,
              36.1113892
            ],
            [
              140.101234,
              36.1113608
            ],
            [
              140.1011768,
              36.1113359
            ],
            [
              140.1011567,
              36.1113648
            ],
            [
              140.1009264,
              36.1112702
            ],
            [
              140.1008657,
              36.1112456
            ],
            [
              140.1007961,
              36.1113499
            ],
            [
              140.1007717,
              36.1113868
            ],
            [
              140.1008651,
              36.111427
            ],
            [
              140.1011456,
              36.1115492
            ],
            [
              140.1011364,
              36.1115628
            ],
            [
              140.1012778,
              36.1116244
            ],
            [
              140.1013255,
              36.1115541
            ],
            [
              140.1013858,
              36.1114624
            ]
          ]
        ]
      }
    },
    {
      "type": "Feature",
      "properties": {
        "placeId": "bldg-2d",
        "name": "2D棟"
      },
      "geometry": {
        "type": "Polygon",
        "coordinates": [
          [
            [
              140.1008651,
              36.111427
            ],
            [
              140.1007717,
              36.1113868
            ],
            [
              140.1007961,
              36.1113499
            ],
            [
              140.1006945,
              36.1113073
            ],
            [
              140.1004597,
              36.1116726
            ],
            [
              140.1005005,
              36.1116898
            ],
            [
              140.1003988,
              36.1118481
            ],
            [
              140.1005903,
              36.1119284
            ],
            [
              140.1006155,
              36.1118891
            ],
            [
              140.100655,
              36.1119056
            ],
            [
              140.1006817,
              36.1118641
            ],
            [
              140.1010342,
              36.1120117
            ],
            [
              140.1010805,
              36.1119396
            ],
            [
              140.1012302,
              36.1120022
            ],
            [
              140.1012638,
              36.1119495
            ],
            [
              140.101279,
              36.1119262
            ],
            [
              140.1012362,
              36.1119077
            ],
            [
              140.1012953,
              36.1118188
            ],
            [
              140.101232,
              36.1117916
            ],
            [
              140.101085,
              36.1117298
            ],
            [
              140.1010257,
              36.1118221
            ],
            [
              140.1006992,
              36.111685
            ],
            [
              140.1008651,
              36.111427
            ]
          ]
        ]
      }
    },
    {
      "type": "Feature",
      "properties": {
        "placeId": "bldg-2b",
        "name": "2B"
      },
      "geometry": {
        "type": "Polygon",
        "coordinates": [
          [
            [
              140.1015252,
              36.1108408
            ],
            [
              140.1013746,
              36.1110857
            ],
            [
              140.1014973,
              36.111135
            ],
            [
              140.1013465,
              36.1113839
            ],
            [
              140.1012465,
              36.1113421
            ],
            [
              140.101234,
              36.1113608
            ],
            [
              140.1011768,
              36.1113359
            ],
            [
              140.1011906,
              36.1113189
            ],
            [
              140.1012345,
              36.111259
            ],
            [
              140.1011333,
              36.1112128
            ],
            [
              140.1011102,
              36.111233
            ],
            [
              140.1009976,
              36.1111883
            ],
            [
              140.1013424,
              36.1106503
            ],
            [
              140.1014527,
              36.110702
            ],
            [
              140.1014269,
              36.1108036
            ],
            [
              140.1015252,
              36.1108408
            ]
          ]
        ]
      }
    },
    {
      "type": "Feature",
      "properties": {
        "placeId": "bldg-2a",
        "name": "2A"
      },
      "geometry": {
        "type": "Polygon",
        "coordinates": [
          [
            [
              140.1014269,
              36.1108036
            ],
            [
              140.1014527,
              36.110702
            ],
            [
              140.1015094,
              36.1106155
            ],
            [
              140.1020608,
              36.1108511
            ],
            [
              140.1020205,
              36.1109127
            ],
            [
              140.1020608,
              36.1109299
            ],
            [
              140.1020247,
              36.1109816
            ],
            [
              140.1019813,
              36.1109718
            ],
            [
              140.1019487,
              36.1109573
            ],
            [
              140.1019183,
              36.1109414
            ],
            [
              140.1019068,
              36.1109504
            ],
            [
              140.1015417,
              36.1108123
            ],
            [
              140.1015252,
              36.1108408
            ],
            [
              140.1014269,
              36.1108036
            ]
          ]
        ]
      }
    },
    {
      "type": "Feature",
      "properties": {
        "placeId": "bldg-2h",
        "name": "2H"
      },
      "geometry": {
        "type": "Polygon",
        "coordinates": [
          [
            [
              140.1017326,
              36.111235
            ],
            [
              140.1018407,
              36.111076
            ],
            [
              140.1018646,
              36.1110812
            ],
            [
              140.1019487,
              36.1109573
            ],
            [
              140.1019813,
              36.1109718
            ],
            [
              140.1018912,
              36.1111043
            ],
            [
              140.1021542,
              36.1112209
            ],
            [
              140.1020492,
              36.1113755
            ],
            [
              140.1017326,
              36.111235
            ]
          ]
        ]
      }
    },
    {
      "type": "Feature",
      "properties": {
        "placeId": "bldg-1d",
        "name": "1D"
      },
      "geometry": {
        "type": "Polygon",
        "coordinates": [
          [
            [
              140.1019751,
              36.1085914
            ],
            [
              140.1020452,
              36.1084729
            ],
            [
              140.1019534,
              36.1084375
            ],
            [
              140.1019745,
              36.1084017
            ],
            [
              140.1019399,
              36.1083884
            ],
            [
              140.1019561,
              36.108361
            ],
            [
              140.1018675,
              36.1083268
            ],
            [
              140.1018539,
              36.1083499
            ],
            [
              140.1017017,
              36.1082884
            ],
            [
              140.1016697,
              36.1083409
            ],
            [
              140.1016329,
              36.1084102
            ],
            [
              140.1018544,
              36.1084956
            ],
            [
              140.1018307,
              36.1085357
            ],
            [
              140.1019751,
              36.1085914
            ]
          ]
        ]
      }
    },
    {
      "type": "Feature",
      "properties": {
        "placeId": "bldg-1e",
        "name": "1E"
      },
      "geometry": {
        "type": "Polygon",
        "coordinates": [
          [
            [
              140.1011698,
              36.1081982
            ],
            [
              140.1012225,
              36.1081118
            ],
            [
              140.1012662,
              36.1081292
            ],
            [
              140.1012984,
              36.1080763
            ],
            [
              140.1014445,
              36.1081344
            ],
            [
              140.1014675,
              36.1080966
            ],
            [
              140.1016877,
              36.1081841
            ],
            [
              140.1016393,
              36.1082636
            ],
            [
              140.1017017,
              36.1082884
            ],
            [
              140.1016697,
              36.1083409
            ],
            [
              140.1016024,
              36.1083141
            ],
            [
              140.1015749,
              36.1083593
            ],
            [
              140.1011698,
              36.1081982
            ]
          ]
        ]
      }
    },
    {
      "type": "Feature",
      "properties": {
        "placeId": "bldg-1c",
        "name": "1C"
      },
      "geometry": {
        "type": "Polygon",
        "coordinates": [
          [
            [
              140.1021468,
              36.1086233
            ],
            [
              140.1022177,
              36.1085119
            ],
            [
              140.1023394,
              36.1085625
            ],
            [
              140.1023624,
              36.1085264
            ],
            [
              140.1023073,
              36.1085035
            ],
            [
              140.1023452,
              36.1084441
            ],
            [
              140.1024041,
              36.1084685
            ],
            [
              140.1023943,
              36.1084839
            ],
            [
              140.1024514,
              36.1085077
            ],
            [
              140.1024347,
              36.108534
            ],
            [
              140.102477,
              36.1085516
            ],
            [
              140.1025195,
              36.1084849
            ],
            [
              140.1026536,
              36.1085406
            ],
            [
              140.1026074,
              36.1086133
            ],
            [
              140.1027234,
              36.1086609
            ],
            [
              140.1026717,
              36.1087431
            ],
            [
              140.1025596,
              36.1086965
            ],
            [
              140.1024565,
              36.1088585
            ],
            [
              140.1023128,
              36.1087988
            ],
            [
              140.1023665,
              36.1087145
            ],
            [
              140.1021468,
              36.1086233
            ]
          ]
        ]
      }
    },
    {
      "type": "Feature",
      "properties": {
        "placeId": "bldg-1b",
        "name": "1B"
      },
      "geometry": {
        "type": "Polygon",
        "coordinates": [
          [
            [
              140.1026717,
              36.1087431
            ],
            [
              140.1025813,
              36.1088867
            ],
            [
              140.1027263,
              36.1089463
            ],
            [
              140.1028409,
              36.1087642
            ],
            [
              140.1029869,
              36.1088242
            ],
            [
              140.1030606,
              36.1087072
            ],
            [
              140.1029271,
              36.1086524
            ],
            [
              140.1028989,
              36.1086972
            ],
            [
              140.1028217,
              36.1086654
            ],
            [
              140.1028037,
              36.1086939
            ],
            [
              140.1027234,
              36.1086609
            ],
            [
              140.1026717,
              36.1087431
            ]
          ]
        ]
      }
    },
    {
      "type": "Feature",
      "properties": {
        "placeId": "bldg-1a",
        "name": "1A"
      },
      "geometry": {
        "type": "Polygon",
        "coordinates": [
          [
            [
              140.1025039,
              36.1082518
            ],
            [
              140.1024639,
              36.1080858
            ],
            [
              140.1026223,
              36.1080467
            ],
            [
              140.102654,
              36.1081242
            ],
            [
              140.1027686,
              36.108171
            ],
            [
              140.1027778,
              36.1081549
            ],
            [
              140.1029914,
              36.1082328
            ],
            [
              140.103135,
              36.1083031
            ],
            [
              140.1030484,
              36.1084357
            ],
            [
              140.1029454,
              36.1083911
            ],
            [
              140.1028259,
              36.1083723
            ],
            [
              140.1025039,
              36.1082518
            ]
          ]
        ]
      }
    },
    {
      "type": "Feature",
      "properties": {
        "placeId": "bldg-1h",
        "name": "1H"
      },
      "geometry": {
        "type": "Polygon",
        "coordinates": [
          [
            [
              140.1030484,
              36.1084357
            ],
            [
              140.103011,
              36.1084922
            ],
            [
              140.1029645,
              36.1085634
            ],
            [
              140.1031633,
              36.1086482
            ],
            [
              140.1033052,
              36.1084311
            ],
            [
              140.1033335,
              36.1083877
            ],
            [
              140.103135,
              36.1083031
            ],
            [
              140.1030484,
              36.1084357
            ]
          ]
        ]
      }
    },
    {
      "type": "Feature",
      "properties": {
        "placeId": "bldg-kaikan",
        "name": "大学会館"
      },
      "geometry": {
        "type": "Polygon",
        "coordinates": [
          [
            [
              140.1013329,
              36.1057675
            ],
            [
              140.1013965,
              36.1055854
            ],
            [
              140.1013642,
              36.1055772
            ],
            [
              140.101456,
              36.1053129
            ],
            [
              140.1011723,
              36.105245
            ],
            [
              140.1012351,
              36.1050623
            ],
            [
              140.1015353,
              36.1051291
            ],
            [
              140.1016067,
              36.104893
            ],
            [
              140.1019392,
              36.1049586
            ],
            [
              140.101918,
              36.1050286
            ],
            [
              140.1020099,
              36.1050467
            ],
            [
              140.1020174,
              36.1050195
            ],
            [
              140.1020983,
              36.105023
            ],
            [
              140.1020978,
              36.1049577
            ],
            [
              140.1023546,
              36.1049645
            ],
            [
              140.1023511,
              36.1051597
            ],
            [
              140.1021914,
              36.1051548
            ],
            [
              140.1021872,
              36.1051924
            ],
            [
              140.1020917,
              36.1051817
            ],
            [
              140.1020651,
              36.1052709
            ],
            [
              140.1021236,
              36.1052825
            ],
            [
              140.1021021,
              36.1053537
            ],
            [
              140.1020556,
              36.1053445
            ],
            [
              140.1020169,
              36.1054723
            ],
            [
              140.1021455,
              36.1054977
            ],
            [
              140.1021254,
              36.1055644
            ],
            [
              140.1021938,
              36.1055779
            ],
            [
              140.1021373,
              36.1057644
            ],
            [
              140.1022808,
              36.1057928
            ],
            [
              140.1022123,
              36.1059523
            ],
            [
              140.102162,
              36.1059672
            ],
            [
              140.1020306,
              36.1059117
            ],
            [
              140.1020486,
              36.1058767
            ],
            [
              140.1018585,
              36.105893
            ],
            [
              140.1018585,
              36.1058669
            ],
            [
              140.1017904,
              36.1058641
            ],
            [
              140.1017308,
              36.1058467
            ],
            [
              140.1017225,
              36.1058251
            ],
            [
              140.101672,
              36.1058138
            ],
            [
              140.1016601,
              36.1058469
            ],
            [
              140.1013329,
              36.1057675
            ]
          ]
        ]
      }
    },
    {
      "type": "Feature",
      "properties": {
        "placeId": "bldg-6b",
        "name": "6B"
      },
      "geometry": {
        "type": "Polygon",
        "coordinates": [
          [
            [
              140.101869,
              36.102865
            ],
            [
              140.1018969,
              36.1026887
            ],
            [
              140.1022331,
              36.1027234
            ],
            [
              140.1022162,
              36.1028302
            ],
            [
              140.1021234,
              36.1028206
            ],
            [
              140.1021124,
              36.1028902
            ],
            [
              140.101869,
              36.102865
            ]
          ]
        ]
      }
    },
    {
      "type": "Feature",
      "properties": {
        "placeId": "bldg-6a",
        "name": "6A"
      },
      "geometry": {
        "type": "Polygon",
        "coordinates": [
          [
            [
              140.1022776,
              36.1029159
            ],
            [
              140.102309,
              36.1027249
            ],
            [
              140.1029296,
              36.1027916
            ],
            [
              140.1028981,
              36.1029826
            ],
            [
              140.1022776,
              36.1029159
            ]
          ]
        ]
      }
    },
    {
      "type": "Feature",
      "properties": {
        "placeId": "bldg-chuo-gym",
        "name": "中央体育館"
      },
      "geometry": {
        "type": "Polygon",
        "coordinates": [
          [
            [
              140.1035066,
              36.1030714
            ],
            [
              140.1040417,
              36.1031272
            ],
            [
              140.1041129,
              36.1026778
            ],
            [
              140.1040097,
              36.1026509
            ],
            [
              140.1041185,
              36.1020401
            ],
            [
              140.1040774,
              36.1020401
            ],
            [
              140.1040803,
              36.1019854
            ],
            [
              140.1037802,
              36.1019592
            ],
            [
              140.1037685,
              36.1019949
            ],
            [
              140.1036508,
              36.1019854
            ],
            [
              140.1035066,
              36.1030714
            ]
          ]
        ]
      }
    },
    {
      "type": "Feature",
      "properties": {
        "placeId": "bldg-kyugi-gym",
        "name": "球技体育館"
      },
      "geometry": {
        "type": "Polygon",
        "coordinates": [
          [
            [
              140.10341,
              36.1017437
            ],
            [
              140.1034539,
              36.1014845
            ],
            [
              140.1035553,
              36.1014958
            ],
            [
              140.1036071,
              36.1011897
            ],
            [
              140.103976,
              36.1012305
            ],
            [
              140.1039393,
              36.1014474
            ],
            [
              140.103836,
              36.101436
            ],
            [
              140.103777,
              36.1017843
            ],
            [
              140.10341,
              36.1017437
            ]
          ]
        ]
      }
    },
    {
      "type": "Feature",
      "properties": {
        "placeId": "bldg-budokan",
        "name": "武道館"
      },
      "geometry": {
        "type": "Polygon",
        "coordinates": [
          [
            [
              140.1045297,
              36.1018805
            ],
            [
              140.1045603,
              36.1016985
            ],
            [
              140.1048764,
              36.1017332
            ],
            [
              140.1048994,
              36.1015963
            ],
            [
              140.1051567,
              36.1016246
            ],
            [
              140.1051766,
              36.101506
            ],
            [
              140.1055235,
              36.101544
            ],
            [
              140.1054878,
              36.1017564
            ],
            [
              140.1053063,
              36.1017365
            ],
            [
              140.1052778,
              36.101906
            ],
            [
              140.1051182,
              36.1018885
            ],
            [
              140.1051089,
              36.1019441
            ],
            [
              140.1045297,
              36.1018805
            ]
          ]
        ]
      }
    },
    {
      "type": "Feature",
      "properties": {
        "placeId": "bldg-pool",
        "name": "屋内プール"
      },
      "geometry": {
        "type": "Polygon",
        "coordinates": [
          [
            [
              140.1045844,
              36.1021159
            ],
            [
              140.1052469,
              36.1021837
            ],
            [
              140.1051832,
              36.10259
            ],
            [
              140.1047651,
              36.1025471
            ],
            [
              140.1047769,
              36.1024718
            ],
            [
              140.1046852,
              36.1024624
            ],
            [
              140.1046945,
              36.1024037
            ],
            [
              140.1045417,
              36.102388
            ],
            [
              140.1045844,
              36.1021159
            ]
          ]
        ]
      }
    },
    {
      "type": "Feature",
      "properties": {
        "placeId": "bldg-5c",
        "name": "5C"
      },
      "geometry": {
        "type": "Polygon",
        "coordinates": [
          [
            [
              140.1023237,
              36.1035347
            ],
            [
              140.102344,
              36.1034101
            ],
            [
              140.1024763,
              36.1034241
            ],
            [
              140.1024953,
              36.1033072
            ],
            [
              140.1023665,
              36.1032935
            ],
            [
              140.1023864,
              36.1031706
            ],
            [
              140.1029741,
              36.103233
            ],
            [
              140.102966,
              36.1032828
            ],
            [
              140.1030277,
              36.1032893
            ],
            [
              140.1030348,
              36.1032454
            ],
            [
              140.1037106,
              36.1033171
            ],
            [
              140.1036903,
              36.1034419
            ],
            [
              140.1038196,
              36.1034556
            ],
            [
              140.1037988,
              36.103583
            ],
            [
              140.1036678,
              36.1035691
            ],
            [
              140.1036499,
              36.1036794
            ],
            [
              140.1029881,
              36.1036091
            ],
            [
              140.1029955,
              36.1035635
            ],
            [
              140.1029152,
              36.1035549
            ],
            [
              140.1029051,
              36.1035968
            ],
            [
              140.1023237,
              36.1035347
            ]
          ]
        ]
      }
    }
  ]
}
